CORVUS BC1              
1 42847U 17042Y   21223.91820568  .00000345  00000-0  38816-4 0  9990
2 42847  97.4656  93.3285 0008179 320.4104  39.6518 14.92433471222111
2017-042Z               
1 42848U 17042Z   21224.17640889  .00000299  00000-0  34012-4 0  9998
2 42848  97.4667  94.3182 0006947 318.1077  41.9610 14.92728879222203
2017-042AA              
1 42849U 17042AA  21224.23216074  .00000048  00000-0  97763-5 0  9996
2 42849  97.4668  94.4036 0006976 320.3742  39.6968 14.92739559222173
FLOCK 2K-3              
1 42850U 17042AB  21223.86049681  .00006368  00000-0  12813-3 0  9996
2 42850  96.8444  74.1083 0006734 219.0688 141.0078 15.46905576228969
FLOCK 2K-45             
1 42856U 17042AH  21223.86855992  .00008732  00000-0  17564-3 0  9997
2 42856  96.8451  74.0868 0006499 220.8275 139.2489 15.46809219228965
FLOCK 2K-21             
1 42860U 17042AM  21224.12448538  .00008071  00000-0  16258-3 0  9991
2 42860  96.8465  74.4873 0006799 222.3904 137.6822 15.46789524229009
FLOCK 2K-7              
1 42862U 17042AP  21223.85600274  .00004206  00000-0  85472-4 0  9990
2 42862  96.8461  74.2872 0006874 220.6072 139.4667 15.46806541228976
FLOCK 2K-40             
1 42865U 17042AS  21224.05297679  .00004162  00000-0  84600-4 0  9990
2 42865  96.8459  74.4577 0006726 221.4206 138.6536 15.46801820228997
FLOCK 2K-39             
1 42866U 17042AT  21223.85213423  .00007746  00000-0  15600-3 0  9997
2 42866  96.8463  74.2635 0006720 222.1892 137.8842 15.46809066228967
FLOCK 2K-37             
1 42867U 17042AU  21224.23668315  .00008390  00000-0  16868-3 0  9998
2 42867  96.8455  74.5877 0006803 222.1414 137.9315 15.46833692229028
FLOCK 2K-31             
1 42869U 17042AW  21223.84500098  .00004020  00000-0  81781-4 0  9992
2 42869  96.8455  74.1796 0006881 215.2152 144.8645 15.46801497228967
FLOCK 2K-32             
1 42870U 17042AX  21223.84168095  .00009070  00000-0  18236-3 0  9995
2 42870  96.8458  74.1948 0006465 216.7621 143.3188 15.46809681228965
FLOCK 2K-29             
1 42871U 17042AY  21223.83837811  .00004556  00000-0  92448-4 0  9996
2 42871  96.8454  74.2172 0006964 215.6841 144.3945 15.46807838228962
FLOCK 2K-30             
1 42872U 17042AZ  21224.15871347  .00004232  00000-0  85954-4 0  9990
2 42872  96.8468  74.6194 0006902 216.2544 143.8241 15.46815559229003
FLOCK 2K-44             
1 42873U 17042BA  21223.83136976  .00004377  00000-0  88844-4 0  9998
2 42873  96.8450  74.1730 0007707 204.9257 155.1623 15.46808299228962
FLOCK 2K-41             
1 42875U 17042BC  21224.13151744  .00004754  00000-0  96313-4 0  9993
2 42875  96.8462  74.6352 0008380 207.5669 152.5138 15.46821438229015
FLOCK 2K-35             
1 42877U 17042BE  21223.82839780  .00008778  00000-0  17638-3 0  9995
2 42877  96.8457  74.3073 0008101 208.4758 151.6051 15.46826343228965
LEMUR-2-ARTFISCHER      
1 42881U 17042BJ  21224.13602267  .00007745  00000-0  15638-3 0  9994
2 42881  96.8402  73.4614 0008552 215.8462 144.2216 15.46718204228939
FLOCK 2K-19             
1 42886U 17042BP  21223.82497017  .00004451  00000-0  90293-4 0  9991
2 42886  96.8456  74.3001 0008383 210.2442 149.8326 15.46817166228965
FLOCK 2K-18             
1 42887U 17042BQ  21223.82163978  .00003985  00000-0  80983-4 0  9994
2 42887  96.8459  74.3124 0008469 208.8339 151.2446 15.46821359228967
FLOCK 2K-15             
1 42890U 17042BT  21224.14197788  .00004860  00000-0  98366-4 0  9997
2 42890  96.8460  74.7460 0008538 206.3993 153.6824 15.46832297229012
FLOCK 2K-12             
1 42893U 17042BW  21223.87640151  .00008757  00000-0  17594-3 0  9998
2 42893  96.8458  74.4155 0008416 208.4544 151.6249 15.46825565228973
FLOCK 2K-10             
1 42895U 17042BY  21224.20276071  .00004018  00000-0  81603-4 0  9993
2 42895  96.8454  74.6070 0008637 205.2676 154.8153 15.46832784229022
VENUS                   
1 42901U 17044B   21224.19721456  .00212264  00000-0  37988-2 0  9992
2 42901  97.2263 300.4016 0009210  38.1134  40.7451 15.49165615214239
COSMOS 2520             
1 42907U 17046A   21223.97484935  .00000134  00000-0  00000+0 0  9996
2 42907   0.0220 121.8303 0000818  50.8494 183.9043  1.00272361 14637
TDRS 13                 
1 42915U 17047A   21223.68136046 -.00000100  00000-0  00000-0 0  9996
2 42915   4.9323 331.2888 0017811 115.2937 107.5449  1.00271674 14590
QZS-3 (MICHIBIKI-3)     
1 42917U 17048A   21224.04354990 -.00000351  00000-0  00000+0 0  9997
2 42917   0.0563 189.3387 0001291   0.1469 273.8742  1.00266452 14612
FORMOSAT-5              
1 42920U 17049A   21223.71719449 -.00000071  00000-0 -67911-5 0  9999
2 42920  98.2692 302.1738 0012022 120.8806 239.3577 14.50867643209956
ORS-5 SENSORSAT         
1 42921U 17050A   21223.45542671  .00000910  00000-0  14105-4 0  9990
2 42921   0.0481 269.5710 0012498 159.6001 290.9627 14.91461715215900
AMAZONAS 5              
1 42934U 17053A   21224.17688206 -.00000285  00000-0  00000+0 0  9992
2 42934   0.0455 301.3319 0001525 187.2688 194.9069  1.00271136 14375
COSMOS 2522 [GLONASS-M] 
1 42939U 17055A   21223.74892366  .00000070  00000-0  00000-0 0  9997
2 42939  64.2174 252.5230 0009886 244.0113 223.1967  2.13101976 30258
ASIASAT 9               
1 42942U 17057A   21223.92326565 -.00000362  00000-0  00000+0 0  9990
2 42942   0.0121  96.1770 0001953  36.6260 282.2520  1.00269930 14194
YAOGAN 30 A             
1 42945U 17058A   21224.21680830  .00000152  00000-0  18269-4 0  9992
2 42945  34.9997 249.5204 0004238 315.0839  44.9524 14.89966742210848
YAOGAN 30 B             
1 42946U 17058B   21224.23980555  .00000169  00000-0  20002-4 0  9998
2 42946  34.9988 249.6971 0001525 124.3861 235.6982 14.89960742210844
YAOGAN 30 C             
1 42947U 17058C   21224.26137048  .00000179  00000-0  20949-4 0  9994
2 42947  34.9991 249.8510 0007118 354.0085   6.0525 14.89965908210835
INTELSAT 37E (IS-37E)   
1 42950U 17059A   21224.10991101 -.00000144  00000-0  00000+0 0  9994
2 42950   0.0193 116.3250 0002550  23.6636 202.3648  1.00270095 14296
BSAT-4A                 
1 42951U 17059B   21223.87168766 -.00000353  00000-0  00000-0 0  9994
2 42951   0.0490  40.4919 0002421  55.9803 287.7121  1.00271492 14045
VRSS-2                  
1 42954U 17060A   21224.17911949  .00000081  00000-0  18959-4 0  9995
2 42954  97.8892 296.8245 0020341  86.5746 273.7804 14.76198370206950
IRIDIUM 133             
1 42955U 17061A   21224.21354054  .00000012  00000-0 -26324-5 0  9991
2 42955  86.3947  44.9055 0002409  87.4145 272.7326 14.34217694201086
IRIDIUM 100             
1 42956U 17061B   21223.92811851  .00000009  00000-0 -38190-5 0  9992
2 42956  86.3945  44.9857 0002042  87.6556 272.4874 14.34217000201048
IRIDIUM 122             
1 42957U 17061C   21224.24525444  .00000007  00000-0 -46581-5 0  9990
2 42957  86.3946  44.8494 0002536  84.9079 275.2406 14.34217593201098
IRIDIUM 129             
1 42958U 17061D   21223.92179736  .00000003  00000-0 -59582-5 0  9995
2 42958  86.3946  45.0326 0002419  87.9575 272.1898 14.34217452201062
IRIDIUM 119             
1 42959U 17061E   21224.23891656  .00000006  00000-0 -49769-5 0  9992
2 42959  86.3947  44.8869 0002391  89.9485 270.1985 14.34217447201120
IRIDIUM 107             
1 42960U 17061F   21223.90908347 -.00000001  00000-0 -73027-5 0  9993
2 42960  86.3948  45.0350 0002131  87.4326 272.7113 14.34216471201082
IRIDIUM 132             
1 42961U 17061G   21224.12474317  .00000003  00000-0 -59245-5 0  9991
2 42961  86.3947  44.9346 0002137  81.2447 278.8991 14.34217660201113
IRIDIUM 136             
1 42962U 17061H   21224.01690974  .00000005  00000-0 -54242-5 0  9993
2 42962  86.3947  44.9802 0002373  92.6010 267.5457 14.34216240201110
IRIDIUM 139             
1 42963U 17061J   21224.02325944  .00000010  00000-0 -35980-5 0  9991
2 42963  86.3949  45.0113 0002251  85.0309 275.1144 14.34217088201122
IRIDIUM 125             
1 42964U 17061K   21224.01060091  .00000008  00000-0 -42692-5 0  9995
2 42964  86.3950  45.0454 0002171  85.1053 275.0390 14.34217484201134
QZS-4 (MICHIBIKI-4)     
1 42965U 17062A   21223.71293986 -.00000303  00000-0  00000-0 0  9994
2 42965  40.8215   6.1131 0746132 268.8573  80.1731  1.00290463 14057
SES-11 (ECHOSTAR 105)   
1 42967U 17063A   21223.66260475 -.00000091  00000-0  00000-0 0  9992
2 42967   0.0245 102.2038 0001992  19.9126 331.7953  1.00271301 13961
SENTINEL-5P             
1 42969U 17064A   21224.11525262 -.00000024  00000-0  92624-5 0  9998
2 42969  98.7387 163.2813 0001251  86.4736 273.6583 14.19544711198437
KESTREL EYE IIM (KE2M)  
1 42982U 98067NE  21224.11766277  .00265710  50037-4  17104-3 0  9999
2 42982  51.6128 252.3964 0008279  16.3598 343.7685 16.16811401217701
KOREASAT 5A             
1 42984U 17067A   21223.86716067 -.00000361  00000-0  00000-0 0  9990
2 42984   0.0235 104.0660 0001504  32.7429 249.0454  1.00270335 13781
COSMOS 2523             
1 42986U 17037E   21223.84254231 -.00000036  00000-0  23764-5 0  9993
2 42986  97.7047 281.1882 0078602 357.0826   2.9902 14.86865800205284
SKYSAT-C11              
1 42987U 17068A   21224.25381616  .00001844  00000-0  48070-4 0  9995
2 42987  97.2655 339.8585 0008524 341.3922  18.7012 15.40129361210802
SKYSAT-C10              
1 42988U 17068B   21223.58926645  .00001990  00000-0  51634-4 0  9990
2 42988  97.2696 339.2150 0003949  53.8624 306.2988 15.40192583210724
SKYSAT-C9               
1 42989U 17068C   21223.90669115  .00001940  00000-0  50518-4 0  9998
2 42989  97.2649 338.8953 0001595 137.0418 223.0953 15.40102719210966
SKYSAT-C8               
1 42990U 17068D   21223.89691546  .00001929  00000-0  50150-4 0  9990
2 42990  97.2700 339.9035 0001792  63.3371 296.8059 15.40167242210795
SKYSAT-C7               
1 42991U 17068E   21224.27483246  .00001953  00000-0  50638-4 0  9998
2 42991  97.2705 340.3069 0002919  92.9913 267.1667 15.40230397210851
